SAUDISAT 1C             
1 27607U 02058C   14093.50718690  .00002003  00000-0  30265-3 0  3505
2 27607  64.5555  99.9766 0038543  36.6240 323.7974 14.73588355606471
SAUDISAT 2              
1 28371U 04025F   14094.38679797  .00000828  00000-0  20732-3 0  9126
2 28371  97.9740  77.1725 0026133  10.6505 349.5245 14.53657018517847
UNISAT 3                
1 28373U 04025H   14093.78927078  .00000683  00000-0  20401-3 0  7826
2 28373  98.1965  50.5570 0070491 165.8168 256.6992 14.44500849514874
SAUDISAT 3              
1 31118U 07012B   14094.52809888  .00000578  00000-0  10716-3 0  5253
2 31118  97.7781 134.2517 0016870  56.5272 303.7545 14.68593591373301
